*******************************************************************************
Ephemeris / WWW_USER Mon Jul 15 19:22:44 2024 Pasadena, USA      / Horizons    
*******************************************************************************
Target body name: (2018 RB1)                      {source: JPL#5}
Center body name: Earth (399)                     {source: DE441}
Center-site name: Gemini South Obs., Cerro Pachon
*******************************************************************************
Start time      : A.D. 2019-Jan-20 23:56:00.0000 UT      
Stop  time      : A.D. 2019-Jan-21 09:52:00.0000 UT      
Step-size       : 1 minutes
*******************************************************************************
Target pole/equ : undefined
Target radii    : undefined                                                    
Center geodetic : 289.2634, -30.2406227, 2.71233  {E-lon(deg),Lat(deg),Alt(km)}
Center cylindric: 289.2634,5517.21435,-3194.81213 {E-lon(deg),Dxy(km),Dz(km)}
Center pole/equ : ITRF93                          {East-longitude positive}
Center radii    : 6378.137, 6378.137, 6356.752 km {Equator_a, b, pole_c}       
Target primary  : Sun
Vis. interferer : MOON (R_eq= 1737.400) km        {source: DE441}
Rel. light bend : Sun                             {source: DE441}
Rel. lght bnd GM: 1.3271E+11 km^3/s^2                                          
Small-body perts: Yes                             {source: SB441-N16}
Atmos refraction: NO (AIRLESS)
RA format       : HMS
Time format     : CAL 
Calendar mode   : Mixed Julian/Gregorian
RTS-only print  : NO       
EOP file        : eop.240715.p241008                                           
EOP coverage    : DATA-BASED 1962-JAN-20 TO 2024-JUL-15. PREDICTS-> 2024-OCT-07
Units conversion: 1 au= 149597870.700 km, c= 299792.458 km/s, 1 day= 86400.0 s 
Table cut-offs 1: Elevation (-90.0deg=NO ),Airmass (>38.000=NO), Daylight (YES)
Table cut-offs 2: Solar elongation (  0.0,180.0=NO ),Local Hour Angle( 0.0=NO )
Table cut-offs 3: RA/DEC angular rate (     0.0=NO )                           
*******************************************************************************
Initial IAU76/J2000 heliocentric ecliptic osculating elements (au, days, deg.):
  EPOCH=  2458368.5 ! 2018-Sep-07.00 (TDB)         Residual RMS= .299          
   EC= .2816093255492492   QR= .7991213126369837   TP= 2458438.7854507864      
   OM= 166.9631715555783   W=  267.8210074013559   IN= 5.127543488636634       
  Equivalent ICRF heliocentric cartesian coordinates (au, au/d):
   X= 9.883258176612897E-01  Y=-2.654573099408967E-01  Z=-1.095366816313374E-01
  VX= 1.112505236628486E-04 VY= 1.667631342697191E-02 VZ= 5.559084906068471E-03
Asteroid physical parameters (km, seconds, rotational period in hours):        
   GM= n.a.                RAD= n.a.               ROTPER= n.a.                
   H= 27.9                 G= .150                 B-V= n.a.                   
                           ALBEDO= n.a.            STYP= n.a.                  
*******************************************************************************
 Date__(UT)__HR:MN     R.A._________(ICRF)_________DEC
******************************************************
$$SOE
 2019-Jan-21 06:05  m  15 01 54.540743 -18 01 09.71292
 2019-Jan-21 06:06  m  15 01 54.651555 -18 01 09.86792
 2019-Jan-21 06:07  m  15 01 54.762351 -18 01 10.02291
 2019-Jan-21 06:08  m  15 01 54.873132 -18 01 10.17788
 2019-Jan-21 06:09  m  15 01 54.983898 -18 01 10.33285
 2019-Jan-21 06:10  m  15 01 55.094648 -18 01 10.48780
 2019-Jan-21 06:11  m  15 01 55.205384 -18 01 10.64274
 2019-Jan-21 06:12  m  15 01 55.316104 -18 01 10.79766
 2019-Jan-21 06:13  m  15 01 55.426809 -18 01 10.95257
 2019-Jan-21 06:14  m  15 01 55.537499 -18 01 11.10747
 2019-Jan-21 06:15  m  15 01 55.648174 -18 01 11.26235
 2019-Jan-21 06:16  m  15 01 55.758833 -18 01 11.41722
 2019-Jan-21 06:17  m  15 01 55.869478 -18 01 11.57208
 2019-Jan-21 06:18  m  15 01 55.980107 -18 01 11.72692
 2019-Jan-21 06:19  m  15 01 56.090722 -18 01 11.88175
 2019-Jan-21 06:20  m  15 01 56.201321 -18 01 12.03656
 2019-Jan-21 06:21  m  15 01 56.311905 -18 01 12.19135
 2019-Jan-21 06:22  m  15 01 56.422474 -18 01 12.34613
 2019-Jan-21 06:23  m  15 01 56.533028 -18 01 12.50089
 2019-Jan-21 06:24  m  15 01 56.643567 -18 01 12.65564
 2019-Jan-21 06:25  m  15 01 56.754091 -18 01 12.81037
 2019-Jan-21 06:26  m  15 01 56.864599 -18 01 12.96508
 2019-Jan-21 06:27  m  15 01 56.975093 -18 01 13.11978
 2019-Jan-21 06:28  m  15 01 57.085572 -18 01 13.27446
 2019-Jan-21 06:29  m  15 01 57.196036 -18 01 13.42912
 2019-Jan-21 06:30  m  15 01 57.306484 -18 01 13.58376
 2019-Jan-21 06:31  m  15 01 57.416918 -18 01 13.73838
 2019-Jan-21 06:32  m  15 01 57.527337 -18 01 13.89299
 2019-Jan-21 06:33  m  15 01 57.637741 -18 01 14.04757
 2019-Jan-21 06:34  m  15 01 57.748130 -18 01 14.20214
 2019-Jan-21 06:35  m  15 01 57.858504 -18 01 14.35669
 2019-Jan-21 06:36  m  15 01 57.968863 -18 01 14.51121
 2019-Jan-21 06:37  m  15 01 58.079207 -18 01 14.66572
 2019-Jan-21 06:38  m  15 01 58.189537 -18 01 14.82021
 2019-Jan-21 06:39  m  15 01 58.299851 -18 01 14.97467
 2019-Jan-21 06:40  m  15 01 58.410151 -18 01 15.12912
 2019-Jan-21 06:41  m  15 01 58.520435 -18 01 15.28354
 2019-Jan-21 06:42  m  15 01 58.630705 -18 01 15.43794
 2019-Jan-21 06:43  m  15 01 58.740960 -18 01 15.59232
 2019-Jan-21 06:44  m  15 01 58.851201 -18 01 15.74668
 2019-Jan-21 06:45  m  15 01 58.961426 -18 01 15.90102
 2019-Jan-21 06:46  m  15 01 59.071637 -18 01 16.05533
 2019-Jan-21 06:47  m  15 01 59.181833 -18 01 16.20962
 2019-Jan-21 06:48  m  15 01 59.292015 -18 01 16.36389
 2019-Jan-21 06:49  m  15 01 59.402181 -18 01 16.51813
 2019-Jan-21 06:50  m  15 01 59.512333 -18 01 16.67235
 2019-Jan-21 06:51  m  15 01 59.622471 -18 01 16.82655
 2019-Jan-21 06:52  m  15 01 59.732593 -18 01 16.98072
 2019-Jan-21 06:53  m  15 01 59.842701 -18 01 17.13487
 2019-Jan-21 06:54  m  15 01 59.952795 -18 01 17.28899
 2019-Jan-21 06:55  m  15 02 00.062873 -18 01 17.44309
 2019-Jan-21 06:56  m  15 02 00.172938 -18 01 17.59716
 2019-Jan-21 06:57  m  15 02 00.282987 -18 01 17.75121
 2019-Jan-21 06:58  m  15 02 00.393023 -18 01 17.90523
 2019-Jan-21 06:59  m  15 02 00.503043 -18 01 18.05922
 2019-Jan-21 07:00  m  15 02 00.613049 -18 01 18.21319
 2019-Jan-21 07:01  m  15 02 00.723041 -18 01 18.36713
 2019-Jan-21 07:02  m  15 02 00.833018 -18 01 18.52105
 2019-Jan-21 07:03  m  15 02 00.942981 -18 01 18.67494
 2019-Jan-21 07:04  m  15 02 01.052930 -18 01 18.82880
 2019-Jan-21 07:05  m  15 02 01.162864 -18 01 18.98263
 2019-Jan-21 07:06  m  15 02 01.272783 -18 01 19.13643
 2019-Jan-21 07:07  m  15 02 01.382689 -18 01 19.29021
 2019-Jan-21 07:08  m  15 02 01.492580 -18 01 19.44395
 2019-Jan-21 07:09  m  15 02 01.602456 -18 01 19.59767
 2019-Jan-21 07:10  m  15 02 01.712319 -18 01 19.75136
 2019-Jan-21 07:11  m  15 02 01.822167 -18 01 19.90502
 2019-Jan-21 07:12  m  15 02 01.932001 -18 01 20.05865
 2019-Jan-21 07:13  m  15 02 02.041821 -18 01 20.21225
 2019-Jan-21 07:14  m  15 02 02.151626 -18 01 20.36582
 2019-Jan-21 07:15  m  15 02 02.261418 -18 01 20.51935
 2019-Jan-21 07:16  m  15 02 02.371195 -18 01 20.67286
 2019-Jan-21 07:17  m  15 02 02.480958 -18 01 20.82634
 2019-Jan-21 07:18  m  15 02 02.590707 -18 01 20.97979
 2019-Jan-21 07:19  m  15 02 02.700442 -18 01 21.13320
 2019-Jan-21 07:20  m  15 02 02.810164 -18 01 21.28658
 2019-Jan-21 07:21  m  15 02 02.919871 -18 01 21.43993
 2019-Jan-21 07:22  m  15 02 03.029564 -18 01 21.59325
 2019-Jan-21 07:23  m  15 02 03.139243 -18 01 21.74654
 2019-Jan-21 07:24  m  15 02 03.248908 -18 01 21.89979
 2019-Jan-21 07:25  m  15 02 03.358559 -18 01 22.05301
 2019-Jan-21 07:26  m  15 02 03.468197 -18 01 22.20619
 2019-Jan-21 07:27  m  15 02 03.577821 -18 01 22.35935
 2019-Jan-21 07:28  m  15 02 03.687430 -18 01 22.51246
 2019-Jan-21 07:29  m  15 02 03.797027 -18 01 22.66555
 2019-Jan-21 07:30  m  15 02 03.906609 -18 01 22.81860
 2019-Jan-21 07:31  m  15 02 04.016177 -18 01 22.97161
 2019-Jan-21 07:32  m  15 02 04.125732 -18 01 23.12459
 2019-Jan-21 07:33  m  15 02 04.235274 -18 01 23.27754
 2019-Jan-21 07:34  m  15 02 04.344801 -18 01 23.43045
 2019-Jan-21 07:35  m  15 02 04.454315 -18 01 23.58332
 2019-Jan-21 07:36  m  15 02 04.563816 -18 01 23.73616
 2019-Jan-21 07:37  m  15 02 04.673302 -18 01 23.88896
 2019-Jan-21 07:38  m  15 02 04.782776 -18 01 24.04173
 2019-Jan-21 07:39  m  15 02 04.892236 -18 01 24.19446
 2019-Jan-21 07:40  m  15 02 05.001682 -18 01 24.34715
 2019-Jan-21 07:41  m  15 02 05.111115 -18 01 24.49980
 2019-Jan-21 07:42  m  15 02 05.220535 -18 01 24.65242
 2019-Jan-21 07:43  m  15 02 05.329941 -18 01 24.80500
 2019-Jan-21 07:44  m  15 02 05.439334 -18 01 24.95754
 2019-Jan-21 07:45  m  15 02 05.548714 -18 01 25.11004
 2019-Jan-21 07:46  m  15 02 05.658080 -18 01 25.26251
 2019-Jan-21 07:47  m  15 02 05.767433 -18 01 25.41493
 2019-Jan-21 07:48  m  15 02 05.876773 -18 01 25.56732
 2019-Jan-21 07:49  m  15 02 05.986100 -18 01 25.71967
 2019-Jan-21 07:50  m  15 02 06.095414 -18 01 25.87198
 2019-Jan-21 07:51  m  15 02 06.204714 -18 01 26.02425
 2019-Jan-21 07:52  m  15 02 06.314002 -18 01 26.17647
 2019-Jan-21 07:53  m  15 02 06.423276 -18 01 26.32866
 2019-Jan-21 07:54  m  15 02 06.532538 -18 01 26.48081
 2019-Jan-21 07:55  m  15 02 06.641786 -18 01 26.63292
 2019-Jan-21 07:56  m  15 02 06.751022 -18 01 26.78499
 2019-Jan-21 07:57  m  15 02 06.860245 -18 01 26.93701
 2019-Jan-21 07:58  m  15 02 06.969454 -18 01 27.08899
 2019-Jan-21 07:59  m  15 02 07.078652 -18 01 27.24094
 2019-Jan-21 08:00  m  15 02 07.187836 -18 01 27.39284
 2019-Jan-21 08:01  m  15 02 07.297007 -18 01 27.54470
 2019-Jan-21 08:02  m  15 02 07.406166 -18 01 27.69651
 2019-Jan-21 08:03  m  15 02 07.515312 -18 01 27.84828
 2019-Jan-21 08:04  m  15 02 07.624446 -18 01 28.00002
 2019-Jan-21 08:05  m  15 02 07.733567 -18 01 28.15170
 2019-Jan-21 08:06  m  15 02 07.842675 -18 01 28.30335
 2019-Jan-21 08:07  m  15 02 07.951771 -18 01 28.45495
